CCSDS_OMM_VERS = 2.0
CREATION_DATE  = 
ORIGINATOR     = 

OBJECT_NAME    = ZK-1A R/B
OBJECT_ID      = 2025-292K
CENTER_NAME    = EARTH
REF_FRAME      = TEME
TIME_SYSTEM    = UTC
MEAN_ELEMENT_THEORY = SGP/SGP4

EPOCH          = 2025-12-29T04:10:00.122592
MEAN_MOTION    = 15.59947903
ECCENTRICITY   = .02012112
INCLINATION    = 97.7194
RA_OF_ASC_NODE = 77.3270
ARG_OF_PERICENTER = 305.1480
MEAN_ANOMALY   = 53.1065

EPHEMERIS_TYPE = 0
CLASSIFICATION_TYPE = U
NORAD_CAT_ID   = 67002
ELEMENT_SET_NO = 999
REV_AT_EPOCH   = 295
BSTAR          = .82391983E-3
MEAN_MOTION_DOT = .183432E-2
MEAN_MOTION_DDOT = .11322505E-4

CCSDS_OMM_VERS = 2.0
CREATION_DATE  = 
ORIGINATOR     = 

OBJECT_NAME    = STARLINK-35660
OBJECT_ID      = 2025-293A
CENTER_NAME    = EARTH
REF_FRAME      = TEME
TIME_SYSTEM    = UTC
MEAN_ELEMENT_THEORY = SGP/SGP4

EPOCH          = 2025-12-29T14:00:03.000384
MEAN_MOTION    = 15.62098129
ECCENTRICITY   = .00034193
INCLINATION    = 69.9995
RA_OF_ASC_NODE = 275.4143
ARG_OF_PERICENTER = 265.0386
MEAN_ANOMALY   = 39.1228

EPHEMERIS_TYPE = 0
CLASSIFICATION_TYPE = U
NORAD_CAT_ID   = 67003
ELEMENT_SET_NO = 999
REV_AT_EPOCH   = 287
BSTAR          = -.20447574E-1
MEAN_MOTION_DOT = -.1595156E-1
MEAN_MOTION_DDOT = 0

CCSDS_OMM_VERS = 2.0
CREATION_DATE  = 
ORIGINATOR     = 

OBJECT_NAME    = STARLINK-35913
OBJECT_ID      = 2025-293B
CENTER_NAME    = EARTH
REF_FRAME      = TEME
TIME_SYSTEM    = UTC
MEAN_ELEMENT_THEORY = SGP/SGP4

EPOCH          = 2025-12-29T14:00:03.000384
MEAN_MOTION    = 15.62086000
ECCENTRICITY   = .00033826
INCLINATION    = 69.9996
RA_OF_ASC_NODE = 275.4119
ARG_OF_PERICENTER = 265.1037
MEAN_ANOMALY   = 41.0735

EPHEMERIS_TYPE = 0
CLASSIFICATION_TYPE = U
NORAD_CAT_ID   = 67004
ELEMENT_SET_NO = 999
REV_AT_EPOCH   = 287
BSTAR          = -.20409959E-1
MEAN_MOTION_DOT = -.1591855E-1
MEAN_MOTION_DDOT = 0

CCSDS_OMM_VERS = 2.0
CREATION_DATE  = 
ORIGINATOR     = 

OBJECT_NAME    = STARLINK-36148
OBJECT_ID      = 2025-293C
CENTER_NAME    = EARTH
REF_FRAME      = TEME
TIME_SYSTEM    = UTC
MEAN_ELEMENT_THEORY = SGP/SGP4

EPOCH          = 2025-12-29T14:00:03.000384
MEAN_MOTION    = 15.62071418
ECCENTRICITY   = .0003619
INCLINATION    = 69.9994
RA_OF_ASC_NODE = 275.4095
ARG_OF_PERICENTER = 267.2950
MEAN_ANOMALY   = 40.9332

EPHEMERIS_TYPE = 0
CLASSIFICATION_TYPE = U
NORAD_CAT_ID   = 67005
ELEMENT_SET_NO = 999
REV_AT_EPOCH   = 287
BSTAR          = -.20403825E-1
MEAN_MOTION_DOT = -.1590794E-1
MEAN_MOTION_DDOT = 0

CCSDS_OMM_VERS = 2.0
CREATION_DATE  = 
ORIGINATOR     = 

OBJECT_NAME    = STARLINK-36156
OBJECT_ID      = 2025-293D
CENTER_NAME    = EARTH
REF_FRAME      = TEME
TIME_SYSTEM    = UTC
MEAN_ELEMENT_THEORY = SGP/SGP4

EPOCH          = 2025-12-29T14:00:03.000384
MEAN_MOTION    = 15.62022682
ECCENTRICITY   = .00035684
INCLINATION    = 69.9995
RA_OF_ASC_NODE = 275.4043
ARG_OF_PERICENTER = 265.7394
MEAN_ANOMALY   = 46.8025

EPHEMERIS_TYPE = 0
CLASSIFICATION_TYPE = U
NORAD_CAT_ID   = 67006
ELEMENT_SET_NO = 999
REV_AT_EPOCH   = 287
BSTAR          = -.2048483E-1
MEAN_MOTION_DOT = -.1593664E-1
MEAN_MOTION_DDOT = 0

CCSDS_OMM_VERS = 2.0
CREATION_DATE  = 
ORIGINATOR     = 

OBJECT_NAME    = STARLINK-36123
OBJECT_ID      = 2025-293E
CENTER_NAME    = EARTH
REF_FRAME      = TEME
TIME_SYSTEM    = UTC
MEAN_ELEMENT_THEORY = SGP/SGP4

EPOCH          = 2025-12-29T14:00:03.000384
MEAN_MOTION    = 15.62039794
ECCENTRICITY   = .00034806
INCLINATION    = 69.9995
RA_OF_ASC_NODE = 275.4068
ARG_OF_PERICENTER = 265.0625
MEAN_ANOMALY   = 45.3898

EPHEMERIS_TYPE = 0
CLASSIFICATION_TYPE = U
NORAD_CAT_ID   = 67007
ELEMENT_SET_NO = 999
REV_AT_EPOCH   = 287
BSTAR          = -.20441725E-1
MEAN_MOTION_DOT = -.1591569E-1
MEAN_MOTION_DDOT = 0

CCSDS_OMM_VERS = 2.0
CREATION_DATE  = 
ORIGINATOR     = 

OBJECT_NAME    = STARLINK-36163
OBJECT_ID      = 2025-293F
CENTER_NAME    = EARTH
REF_FRAME      = TEME
TIME_SYSTEM    = UTC
MEAN_ELEMENT_THEORY = SGP/SGP4

EPOCH          = 2025-12-29T14:00:03.000384
MEAN_MOTION    = 15.61982649
ECCENTRICITY   = .00034413
INCLINATION    = 69.9995
RA_OF_ASC_NODE = 275.4016
ARG_OF_PERICENTER = 265.8550
MEAN_ANOMALY   = 48.9757

EPHEMERIS_TYPE = 0
CLASSIFICATION_TYPE = U
NORAD_CAT_ID   = 67008
ELEMENT_SET_NO = 999
REV_AT_EPOCH   = 287
BSTAR          = -.20492084E-1
MEAN_MOTION_DOT = -.1591863E-1
MEAN_MOTION_DDOT = 0

CCSDS_OMM_VERS = 2.0
CREATION_DATE  = 
ORIGINATOR     = 

OBJECT_NAME    = STARLINK-36118
OBJECT_ID      = 2025-293G
CENTER_NAME    = EARTH
REF_FRAME      = TEME
TIME_SYSTEM    = UTC
MEAN_ELEMENT_THEORY = SGP/SGP4

EPOCH          = 2025-12-29T14:00:03.000384
MEAN_MOTION    = 15.61958010
ECCENTRICITY   = .00034881
INCLINATION    = 69.9995
RA_OF_ASC_NODE = 275.3990
ARG_OF_PERICENTER = 265.3289
MEAN_ANOMALY   = 51.6399

EPHEMERIS_TYPE = 0
CLASSIFICATION_TYPE = U
NORAD_CAT_ID   = 67009
ELEMENT_SET_NO = 999
REV_AT_EPOCH   = 281
BSTAR          = -.20468871E-1
MEAN_MOTION_DOT = -.1588937E-1
MEAN_MOTION_DDOT = 0

CCSDS_OMM_VERS = 2.0
CREATION_DATE  = 
ORIGINATOR     = 

OBJECT_NAME    = STARLINK-36189
OBJECT_ID      = 2025-293H
CENTER_NAME    = EARTH
REF_FRAME      = TEME
TIME_SYSTEM    = UTC
MEAN_ELEMENT_THEORY = SGP/SGP4

EPOCH          = 2025-12-29T14:00:03.000384
MEAN_MOTION    = 15.61928581
ECCENTRICITY   = .00035099
INCLINATION    = 69.9997
RA_OF_ASC_NODE = 275.3939
ARG_OF_PERICENTER = 264.4650
MEAN_ANOMALY   = 56.6272

EPHEMERIS_TYPE = 0
CLASSIFICATION_TYPE = U
NORAD_CAT_ID   = 67010
ELEMENT_SET_NO = 999
REV_AT_EPOCH   = 287
BSTAR          = -.20492673E-1
MEAN_MOTION_DOT = -.158897E-1
MEAN_MOTION_DDOT = 0

CCSDS_OMM_VERS = 2.0
CREATION_DATE  = 
ORIGINATOR     = 

OBJECT_NAME    = STARLINK-36167
OBJECT_ID      = 2025-293J
CENTER_NAME    = EARTH
REF_FRAME      = TEME
TIME_SYSTEM    = UTC
MEAN_ELEMENT_THEORY = SGP/SGP4

EPOCH          = 2025-12-29T14:00:03.000384
MEAN_MOTION    = 15.61951984
ECCENTRICITY   = .00034764
INCLINATION    = 69.9995
RA_OF_ASC_NODE = 275.3964
ARG_OF_PERICENTER = 265.2234
MEAN_ANOMALY   = 53.7226

EPHEMERIS_TYPE = 0
CLASSIFICATION_TYPE = U
NORAD_CAT_ID   = 67011
ELEMENT_SET_NO = 999
REV_AT_EPOCH   = 281
BSTAR          = -.20488305E-1
MEAN_MOTION_DOT = -.1589935E-1
MEAN_MOTION_DDOT = 0

CCSDS_OMM_VERS = 2.0
CREATION_DATE  = 
ORIGINATOR     = 

OBJECT_NAME    = STARLINK-36175
OBJECT_ID      = 2025-293K
CENTER_NAME    = EARTH
REF_FRAME      = TEME
TIME_SYSTEM    = UTC
MEAN_ELEMENT_THEORY = SGP/SGP4

EPOCH          = 2025-12-29T14:00:03.000384
MEAN_MOTION    = 15.61916965
ECCENTRICITY   = .0003468
INCLINATION    = 69.9997
RA_OF_ASC_NODE = 275.3915
ARG_OF_PERICENTER = 265.8164
MEAN_ANOMALY   = 57.2925

EPHEMERIS_TYPE = 0
CLASSIFICATION_TYPE = U
NORAD_CAT_ID   = 67012
ELEMENT_SET_NO = 999
REV_AT_EPOCH   = 281
BSTAR          = -.20515037E-1
MEAN_MOTION_DOT = -.1589839E-1
MEAN_MOTION_DDOT = 0

CCSDS_OMM_VERS = 2.0
CREATION_DATE  = 
ORIGINATOR     = 

OBJECT_NAME    = STARLINK-35856
OBJECT_ID      = 2025-293L
CENTER_NAME    = EARTH
REF_FRAME      = TEME
TIME_SYSTEM    = UTC
MEAN_ELEMENT_THEORY = SGP/SGP4

EPOCH          = 2025-12-29T14:00:03.000384
MEAN_MOTION    = 15.61894279
ECCENTRICITY   = .00034929
INCLINATION    = 69.9995
RA_OF_ASC_NODE = 275.3889
ARG_OF_PERICENTER = 265.2415
MEAN_ANOMALY   = 60.0023

EPHEMERIS_TYPE = 0
CLASSIFICATION_TYPE = U
NORAD_CAT_ID   = 67013
ELEMENT_SET_NO = 999
REV_AT_EPOCH   = 281
BSTAR          = -.20538255E-1
MEAN_MOTION_DOT = -.1590203E-1
MEAN_MOTION_DDOT = 0

