ZK-1A R/B               
1 67002U 25292K   25363.17361253  .00183432  11323-4  82392-3 0  9994
2 67002  97.7194  77.3270 0201211 305.1480  53.1065 15.59947903  2956
STARLINK-35660          
1 67003U 25293A   25363.58336806 -.01595156  00000+0 -20448-1 0  9997
2 67003  69.9995 275.4143 0003419 265.0386  39.1228 15.62098129  2873
STARLINK-35913          
1 67004U 25293B   25363.58336806 -.01591855  00000+0 -20410-1 0  9999
2 67004  69.9996 275.4119 0003382 265.1037  41.0735 15.62086000  2871
STARLINK-36148          
1 67005U 25293C   25363.58336806 -.01590794  00000+0 -20404-1 0  9994
2 67005  69.9994 275.4095 0003619 267.2950  40.9332 15.62071418  2871
STARLINK-36156          
1 67006U 25293D   25363.58336806 -.01593664  00000+0 -20485-1 0  9993
2 67006  69.9995 275.4043 0003568 265.7394  46.8025 15.62022682  2877
STARLINK-36123          
1 67007U 25293E   25363.58336806 -.01591569  00000+0 -20442-1 0  9999
2 67007  69.9995 275.4068 0003480 265.0625  45.3898 15.62039794  2872
STARLINK-36163          
1 67008U 25293F   25363.58336806 -.01591863  00000+0 -20492-1 0  9992
2 67008  69.9995 275.4016 0003441 265.8550  48.9757 15.61982649  2876
STARLINK-36118          
1 67009U 25293G   25363.58336806 -.01588937  00000+0 -20469-1 0  9995
2 67009  69.9995 275.3990 0003488 265.3289  51.6399 15.61958010  2814
STARLINK-36189          
1 67010U 25293H   25363.58336806 -.01588970  00000+0 -20493-1 0  9991
2 67010  69.9997 275.3939 0003509 264.4650  56.6272 15.61928581  2878
STARLINK-36167          
1 67011U 25293J   25363.58336806 -.01589935  00000+0 -20488-1 0  9998
2 67011  69.9995 275.3964 0003476 265.2234  53.7226 15.61951984  2819
STARLINK-36175          
1 67012U 25293K   25363.58336806 -.01589839  00000+0 -20515-1 0  9993
2 67012  69.9997 275.3915 0003468 265.8164  57.2925 15.61916965  2812
STARLINK-35856          
1 67013U 25293L   25363.58336806 -.01590203  00000+0 -20538-1 0  9996
2 67013  69.9995 275.3889 0003492 265.2415  60.0023 15.61894279  2815
